FOX-1D (AO-92)          
1 43137U 18004AC  23292.47428011  .00113219  00000+0  13820-2 0  9998
2 43137  97.3141  13.9487 0003193  38.6840 321.4645 15.60072709321583
DIWATA-2B               
1 43678U 18084H   23292.52367504  .00002569  00000+0  24665-3 0  9996
2 43678  98.0418  79.1783 0010502 108.0931 252.1433 14.93967864270821
ES'HAIL 2               
1 43700U 18090A   23292.56045630  .00000154  00000+0  00000+0 0  9997
2 43700   0.0134 251.0434 0001084 325.3963  38.9215  1.00271943 17932
FOX-1CLIFF (AO-95)      
1 43770U 18099N   23292.58943342  .00010803  00000+0  83646-3 0  9995
2 43770  97.5768 350.9075 0015247  95.5410 264.7554 15.01526622266262
ITASAT 1                
1 43786U 18099AE  23292.16416605  .00007887  00000+0  62256-3 0  9995
2 43786  97.5542 351.3713 0020337  79.1608 281.1904 15.00811096266236
JY1SAT (JO-97)          
1 43803U 18099AX  23292.45838811  .00011547  00000+0  86983-3 0  9995
2 43803  97.5551 351.9256 0011404  47.6502 312.5687 15.02596337266341
UWE-4                   
1 43880U 18111E   23292.51705804  .00011596  00000+0  83645-3 0  9993
2 43880  97.6219 195.8292 0020461 108.3468 251.9986 15.04117394261046
NEXUS (FO-99)           
1 43937U 19003F   23292.38392219  .00429765  00000+0  17878-2 0  9999
2 43937  97.0643 319.8920 0008079 161.3954 198.7613 15.84623243265457
JAISAT-1                
1 44419U 19038F   23292.45421932  .00052974  00000+0  13925-2 0  9999
2 44419  97.6831 279.0230 0010905 201.6923 158.3861 15.38357445237581
DUCHIFAT-3              
1 44854U 19089C   23292.54085012  .00016951  00000+0  10573-2 0  9994
2 44854  36.9610  66.8100 0007699 267.0213  92.9650 15.08845050211679
TIANYAN 01              
1 44881U 19093C   23292.53892837  .00001974  00000+0  24960-3 0  9994
2 44881  97.8527   8.8405 0015414  36.9562 323.2710 14.82887581207229
RS-44 & BREEZE-KM R/B   
1 44909U 19096E   23292.37453104  .00000023  00000+0  54589-4 0  9995
2 44909  82.5175 265.4145 0216230 256.5812 101.1107 12.79723494178045
BY70-2                  
1 45857U 20042B   23292.58857718  .00045202  00000+0  39168-2 0  9995
2 45857  97.9185  13.3683 0007567 314.8985  45.1621 14.96913663178101
SALSAT                  
1 46495U 20068K   23292.43908894  .00008606  00000+0  54363-3 0  9990
2 46495  97.7834 241.9466 0016894  61.8102 298.4830 15.09195591167807
RADFXSAT-2 (AO-109)     
1 47311U 21002C   23292.54891181  .00062251  00000+0  11644-2 0  9999
2 47311  60.6776 297.6956 0020358  15.9223 344.2512 15.48074004153478
UVSQ-SAT                
1 47438U 21006AB  23292.12197537  .00032817  00000+0  11542-2 0  9993
2 47438  97.3680 347.7148 0008791  12.9677 347.1788 15.29244556151550
LEDSAT                  
1 49069U 21073D   23292.13342261  .00016630  00000+0  84137-3 0  9992
2 49069  97.4702   1.0309 0023643  52.8187 307.5200 15.16850950119672
XW-3 (CAS-9)            
1 50466U 21131B   23292.56281736  .00001186  00000+0  39747-3 0  9993
2 50466  98.5454  13.6942 0005212 122.6387 237.5304 14.39128737 95241
TEVEL-3                 
1 50988U 22002E   23292.55088589  .00045774  00000+0  14922-2 0  9998
2 50988  97.4183 359.0743 0007095 149.3345 210.8312 15.31645317 97756
TEVEL-8                 
1 50989U 22002F   23292.44481495  .00044143  00000+0  14434-2 0  9997
2 50989  97.4201 359.0405 0007136 148.3263 211.8409 15.31556267 97738
TEVEL-5                 
1 50998U 22002Q   23292.54892386  .00048469  00000+0  15232-2 0  9995
2 50998  97.4178 359.6269 0007997 144.4954 215.6821 15.32799890 97792
TEVEL-6                 
1 50999U 22002R   23292.41711783  .00048199  00000+0  15159-2 0  9991
2 50999  97.4176 359.4862 0008015 144.6124 215.5651 15.32775970 97772
TEVEL-1                 
1 51013U 22002AF  23292.56502409  .00044361  00000+0  14493-2 0  9995
2 51013  97.4175 359.0084 0007029 148.8298 211.3361 15.31582535 97755
TEVEL-7                 
1 51062U 22002CG  23292.37844611  .00045023  00000+0  14707-2 0  9996
2 51062  97.4197 358.9446 0007107 148.5023 211.6645 15.31583958 97728
TEVEL-4                 
1 51063U 22002CH  23292.38996220  .00043710  00000+0  14320-2 0  9994
2 51063  97.4195 358.9239 0007120 148.1148 212.0525 15.31496093 97721
TEVEL-2                 
1 51069U 22002CP  23292.55214506  .00044674  00000+0  14562-2 0  9997
2 51069  97.4181 359.0438 0007059 149.2213 210.9444 15.31654276 97750
GREENCUBE               
1 53106U 22080B   23291.32127915 -.00000003  00000+0  00000+0 0  9996
2 53106  70.1387 276.9215 0008370 162.7175 197.3771  6.42557259 29665
CYCLOPS (RS29S)         
1 53373U 22096D   23292.58737375  .00087802  00000+0  15023-2 0  9990
2 53373  97.3986 201.1058 0004814  95.9855 264.1946 15.50937795 66881
MONITOR-1 (RS32S)       
1 53374U 22096E   23292.59711977  .00083890  00000+0  15347-2 0  9994
2 53374  97.3945 200.6982 0005273  91.9370 268.2485 15.49046518 66868
KUZBASS-300 (RS34S)     
1 53375U 22096F   23292.59100794  .00056870  00000+0  12271-2 0  9995
2 53375  97.3994 199.8944 0004474  87.0298 273.1462 15.44356082 66806
UTMN (RS23S)            
1 53376U 22096G   23292.55643445  .00061675  00000+0  12784-2 0  9995
2 53376  97.3990 200.0778 0004536  91.0867 269.0902 15.45518695 66814
MIET-AIS (RS28S)        
1 53377U 22096H   23292.59806774  .00047252  00000+0  10628-2 0  9996
2 53377  97.4009 199.7566 0004241  84.7615 275.4116 15.43167512 66790
KAI-1 (RS26S)           
1 53378U 22096J   23292.59416982  .00043174  00000+0  10568-2 0  9997
2 53378  97.4030 199.1953 0003947  81.7052 278.4642 15.40640818 66758
ISOI (RS19S)            
1 53381U 22096M   23292.53656899  .00055277  00000+0  12001-2 0  9999
2 53381  97.4005 200.1105 0003155  48.3211 311.8307 15.44185718 66817
CUBESX-HSE-2 (RS21S)    
1 53383U 22096P   23292.57800474  .00061126  00000+0  12654-2 0  9999
2 53383  97.3993 200.3683 0003322  48.9836 311.1699 15.45563652 66839
SIREN (RS30S)           
1 53384U 22096Q   23292.58137410  .00049810  00000+0  11393-2 0  9999
2 53384  97.4014 199.7931 0003193  39.8371 320.3110 15.42656840 66795
GEOSCAN-EDELVEIS (RS20S)
1 53385U 22096R   23292.54231362  .00102597  00000+0  16069-2 0  9994
2 53385  97.3978 201.8860 0002420  60.0160 300.1333 15.53366863 66961
VIZARD (RS33S)          
1 53386U 22096S   23292.54057879  .00199845  00000+0  20130-2 0  9990
2 53386  97.3953 203.7307 0004510  86.2177 273.9598 15.64753148 67073
CAS-5A (FO-118)         
1 54684U 22167C   23292.59349569  .00025206  00000+0  12460-2 0  9992
2 54684  97.5794  69.7352 0012077 266.7453  93.2399 15.17762842 47528
STRATOSAT-TK 1 (RS52S)  
1 57167U 23091B   23292.57391719  .00015391  00000+0  10752-2 0  9996
2 57167  97.6486 342.1997 0016813 221.1403 138.8557 15.05307238 17138
UMKA 1 (RS40S)          
1 57172U 23091G   23292.59497687  .00006989  00000+0  50309-3 0  9991
2 57172  97.6504 342.1726 0016649 218.4421 141.5620 15.04414291 17130
CUBESX-HSE 3 (RS42S)    
1 57178U 23091N   23292.59822638  .00009603  00000+0  68602-3 0  9996
2 57178  97.6541 342.2250 0017772 213.2636 146.7474 15.04578835 17138
MONITOR-4 (RS57S)       
1 57182U 23091S   23292.53831611  .00009614  00000+0  68934-3 0  9996
2 57182  97.6532 342.1339 0018046 214.7110 145.2940 15.04436632 17127
MONITOR-2 (RS39S)       
1 57184U 23091U   23292.54763616  .00006194  00000+0  44034-3 0  9993
2 57184  97.6537 342.2784 0014246 208.0494 151.9966 15.04959171 17139
SVYATOBOR 1 (RS60S)     
1 57187U 23091X   23292.59133936  .00008400  00000+0  58782-3 0  9994
2 57187  97.6533 342.3761 0013906 204.9630 155.0925 15.05442520 17140
VIZARD-METEO (RS38S)    
1 57189U 23091Z   23292.56135179  .00010906  00000+0  75081-3 0  9999
2 57189  97.6521 342.4034 0013202 205.2517 154.8066 15.05983593 17143
NANOZOND 1 (RS49S)      
1 57190U 23091AA  23292.60053016  .00014338  00000+0  96830-3 0  9993
2 57190  97.6503 342.4637 0011538 208.4947 151.5651 15.06646023 17156
POLYTECH-UNIVERSE 3 (R*)
1 57191U 23091AB  23292.59716337  .00006138  00000+0  43785-3 0  9994
2 57191  97.6501 342.1681 0019322 226.2664 133.6963 15.04762920 17132
UTMN 2 (RS27S)          
1 57203U 23091AP  23292.56933044  .00010106  00000+0  69917-3 0  9996
2 57203  97.6514 342.3927 0013512 205.5155 154.5406 15.05818929 17142
ARCCUBE 1 (RS25S)       
1 57205U 23091AR  23292.59903969  .00015808  00000+0  10631-2 0  9996
2 57205  97.6485 342.4411 0011831 210.7080 149.3456 15.06775955 17157
KUZGTU 1 (RS47S)        
1 57217U 23091AV  23292.59590990  .00009350  00000+0  66808-3 0  9998
2 57217  97.6515 342.1919 0017617 214.6139 145.3941 15.04578857 17133
